XRISM                   
1 57800U 23137A   23320.33038310  .00004441  00000+0  35465-3 0  9995
2 57800  31.0047 291.0199 0010513 250.9898 108.9598 14.98616741 10557
